NORAD_CAT_ID,OBJECT_NAME,OBJECT_TYPE,EPOCH,MEAN_MOTION,ECCENTRICITY,INCLINATION,RA_OF_ASC_NODE,ARG_OF_PERICENTER,MEAN_ANOMALY,BSTAR,MEAN_MOTION_DOT,MEAN_MOTION_DDOT,TLE_LINE0,TLE_LINE1,TLE_LINE2,SEMIMAJOR_AXIS,PERIOD,APOGEE,PERIGEE,DECAYED
49768.0,STARLINK-3196,PAYLOAD,2022-03-10 14:00:01,15.40463096,0.0004305,53.2171,217.2883,5.6146,266.5552,-0.00031828,-0.00013476,0.0,0 STARLINK-3196,1 49768U 21115AW  22069.58334491 -.00013476  00000-0 -31828-3 0  9998,2 49768  53.2171 217.2883 0004305   5.6146 266.5552 15.40463096  3619,6822.879,93.478,447.681,441.806,0.0
49768.0,STARLINK-3196,PAYLOAD,2022-03-10 20:00:01,15.40442088,0.0004503,53.2171,216.1114,4.465,214.8976,0.0012083,0.00049589,0.0,0 STARLINK-3196,1 49768U 21115AW  22069.83334491  .00049589  00000-0  12083-2 0  9999,2 49768  53.2171 216.1114 0004503   4.4650 214.8976 15.40442088 16349,6822.941,93.48,447.878,441.733,0.0
49768.0,STARLINK-3196,PAYLOAD,2022-03-10 22:00:01,15.40469813,0.0004505,53.2167,215.7184,3.5944,318.2209,-5.0561e-06,-6.14e-06,0.0,0 STARLINK-3196,1 49768U 21115AW  22069.91668981 -.00000614  00000-0 -50561-5 0  9996,2 49768  53.2167 215.7184 0004505   3.5944 318.2209 15.40469813  3646,6822.859,93.478,447.797,441.65,0.0
49768.0,STARLINK-3196,PAYLOAD,2022-03-11 14:00:01,15.40526371,0.0004345,53.2166,212.577,3.0795,57.9187,-0.00061429,-0.00025645,0.0,0 STARLINK-3196,1 49768U 21115AW  22070.58334491 -.00025645  00000-0 -61429-3 0  9991,2 49768  53.2166 212.5770 0004345   3.0795  57.9187 15.40526371  3625,6822.691999999999,93.475,447.521,441.592,0.0
49768.0,STARLINK-3196,PAYLOAD,2022-03-11 22:00:00,15.40523783,0.0004447,53.216,211.0069,0.972,109.6858,-0.00016663,-7.268e-05,0.0,0 STARLINK-3196,1 49768U 21115AW  22070.91667824 -.00007268  00000-0 -16663-3 0  9998,2 49768  53.2160 211.0069 0004447   0.9720 109.6858 15.40523783 16517,6822.699000000001,93.475,447.598,441.53,0.0
49768.0,STARLINK-3196,PAYLOAD,2022-03-12 14:00:01,15.40460406,0.0004076,53.216,207.8654,353.4002,216.5669,-0.0012436,-0.00051218,0.0,0 STARLINK-3196,1 49768U 21115AW  22071.58334491 -.00051218  00000-0 -12436-2 0  9990,2 49768  53.2160 207.8654 0004076 353.4002 216.5669 15.40460406 16618,6822.887,93.479,447.533,441.971,0.0
49768.0,STARLINK-3196,PAYLOAD,2022-03-12 22:00:00,15.40449123,0.0004158,53.2155,206.2953,350.6551,268.8925,-0.00010079,-4.547e-05,0.0,0 STARLINK-3196,1 49768U 21115AW  22071.91667824 -.00004547  00000-0 -10079-3 0  9991,2 49768  53.2155 206.2953 0004158 350.6551 268.8925 15.40449123 16669,6822.92,93.479,447.622,441.948,0.0
49768.0,STARLINK-3196,PAYLOAD,2022-03-13 14:00:01,15.404681900000002,0.0003949,53.2159,203.1541,346.4247,12.2229,-0.0027779,-0.0011303,0.0,0 STARLINK-3196,1 49768U 21115AW  22072.58334491 -.00113030  00000-0 -27779-2 0  9998,2 49768  53.2159 203.1541 0003949 346.4247  12.2229 15.40468190 16779,6822.864000000001,93.478,447.423,442.034,0.0
49768.0,STARLINK-3196,PAYLOAD,2022-03-13 22:00:01,15.40393024,0.0004053,53.2158,201.5839,341.9567,66.3067,-0.0011645,-0.000479,0.0,0 STARLINK-3196,1 49768U 21115AW  22072.91668981 -.00047900  00000-0 -11645-2 0  9996,2 49768  53.2158 201.5839 0004053 341.9567  66.3067 15.40393024  3658,6823.085,93.483,447.716,442.185,0.0
49768.0,STARLINK-3196,PAYLOAD,2022-03-14 06:00:00,15.40340986,0.0003835,53.2162,200.0118,339.1542,118.5869,0.0047589,0.0019972,0.0,0 STARLINK-3196,1 49768U 21115AW  22073.25001157  .00199720  00000-0  47589-2 0  9992,2 49768  53.2162 200.0118 0003835 339.1542 118.5869 15.40340986 16873,6823.239000000001,93.486,447.721,442.487,0.0
49768.0,STARLINK-3196,PAYLOAD,2022-03-14 14:00:01,15.40617972,0.0004069,53.2172,198.4409,344.8852,162.5195,-0.0025679,-0.00105144,0.0,0 STARLINK-3196,1 49768U 21115AW  22073.58335648 -.00105144  00000-0 -25679-2 0  9998,2 49768  53.2172 198.4409 0004069 344.8852 162.5195 15.40617972 16923,6822.420999999999,93.469,447.062,441.51,0.0
49768.0,STARLINK-3196,PAYLOAD,2022-03-14 20:00:01,15.40689443,0.0003967,53.2168,197.2611,345.93699999999984,108.6689,-0.020796,-0.0079078,0.0,0 STARLINK-3196,1 49768U 21115AW  22073.83334491 -.00790780  00000-0 -20796-1 0  9991,2 49768  53.2168 197.2611 0003967 345.9370 108.6689 15.40689443 16968,6822.21,93.465,446.782,441.369,0.0
49768.0,STARLINK-3196,PAYLOAD,2022-03-14 22:00:00,15.40363786,0.0004108,53.2161,196.8671,348.1401,208.952,-0.0095219,-0.00372489,0.0,0 STARLINK-3196,1 49768U 21115AW  22073.91667824 -.00372489  00000-0 -95219-2 0  9994,2 49768  53.2161 196.8671 0004108 348.1401 208.9520 15.40363786 16978,6823.172,93.484,447.84,442.234,0.0
49768.0,STARLINK-3196,PAYLOAD,2022-03-15 02:00:01,15.40105007,0.0003936,53.2171,196.0784,353.5974,48.2255,-0.00041267,-0.00017142,0.0,0 STARLINK-3196,1 49768U 21115AW  22074.08334491 -.00017142  00000-0 -41267-3 0  9991,2 49768  53.2171 196.0784 0003936 353.5974  48.2255 15.40105007 17004,6823.936,93.5,448.487,443.115,0.0
49768.0,STARLINK-3196,PAYLOAD,2022-03-15 22:00:00,15.39413478,0.0003587,53.2173,192.1558,343.5605,0.4513,-0.01775,-0.0065662,0.0,0 STARLINK-3196,1 49768U 21115AW  22074.91667824 -.00656620  00000-0 -17750-1 0  9990,2 49768  53.2173 192.1558 0003587 343.5605   0.4513 15.39413478 17137,6825.98,93.542,450.293,445.396,0.0
49768.0,STARLINK-3196,PAYLOAD,2022-03-16 14:00:01,15.38489932,0.0005533,53.2174,189.0231,308.6740000000001,130.872,-0.018796,-0.00673611,0.0,0 STARLINK-3196,1 49768U 21115AW  22075.58334491 -.00673611  00000-0 -18796-1 0  9995,2 49768  53.2174 189.0231 0005533 308.6740 130.8720 15.38489932 17232,6828.7109999999975,93.598,454.354,446.798,0.0
49768.0,STARLINK-3196,PAYLOAD,2022-03-16 20:00:01,15.38129626,0.0003477,53.2173,187.8494,284.0422,100.7552,-0.018403,-0.00652874,0.0,0 STARLINK-3196,1 49768U 21115AW  22075.83334491 -.00652874  00000-0 -18403-1 0  9996,2 49768  53.2173 187.8494 0003477 284.0422 100.7552 15.38129626  3636,6829.776999999999,93.62,454.017,449.268,0.0
49768.0,STARLINK-3196,PAYLOAD,2022-03-17 14:00:01,15.37081567,0.0003851,53.2175,184.3316,297.3714,281.2807,-0.019322,-0.00661825,0.0,0 STARLINK-3196,1 49768U 21115AW  22076.58334491 -.00661825  00000-0 -19322-1 0  9996,2 49768  53.2175 184.3316 0003851 297.3714 281.2807 15.37081567  3649,6832.882,93.684,457.378,452.115,0.0
49768.0,STARLINK-3196,PAYLOAD,2022-03-17 22:00:00,15.36612384,0.0002848,53.2173,182.7693,324.762,299.1371,-0.019447,-0.00656268,0.0,0 STARLINK-3196,1 49768U 21115AW  22076.91667824 -.00656268  00000-0 -19447-1 0  9995,2 49768  53.2173 182.7693 0002848 324.7620 299.1371 15.36612384  3643,6834.272,93.713,458.084,454.191,0.0
49768.0,STARLINK-3196,PAYLOAD,2022-03-18 08:00:01,15.36029912,0.0001143,53.2175,180.8187,342.932,66.7349,-0.019741,-0.006537,0.0,0 STARLINK-3196,1 49768U 21115AW  22077.33334491 -.00653700  00000-0 -19741-1 0  9998,2 49768  53.2175 180.8187 0001143 342.9320  66.7349 15.36029912 17500,6836.0,93.748,458.646,457.084,0.0
49768.0,STARLINK-3196,PAYLOAD,2022-03-18 14:00:01,15.35682192,0.0001395,53.2175,179.6503,27.086,325.6211,-0.02015,-0.00659405,0.0,0 STARLINK-3196,1 49768U 21115AW  22077.58334491 -.00659405  00000-0 -20150-1 0  9999,2 49768  53.2175 179.6503 0001395  27.0860 325.6211 15.35682192  3679,6837.031999999997,93.769,459.851,457.943,0.0
49768.0,STARLINK-3196,PAYLOAD,2022-03-18 22:00:00,15.35216845,0.0001206,53.2174,178.0913,65.3257,330.9457,-0.02053,-0.00661662,0.0,0 STARLINK-3196,1 49768U 21115AW  22077.91667824 -.00661662  00000-0 -20530-1 0  9995,2 49768  53.2174 178.0913 0001206  65.3257 330.9457 15.35216845  3660,6838.413000000001,93.798,461.103,459.454,0.0
49768.0,STARLINK-3196,PAYLOAD,2022-03-19 02:00:01,15.34981393,0.0001332,53.2175,177.3115,72.6421,165.2663,-0.020542,-0.00657394,0.0,0 STARLINK-3196,1 49768U 21115AW  22078.08335648 -.00657394  00000-0 -20542-1 0  9990,2 49768  53.2175 177.3115 0001332  72.6421 165.2663 15.34981393 17615,6839.113,93.812,461.889,460.067,0.0
49768.0,STARLINK-3196,PAYLOAD,2022-03-19 14:00:01,15.34284375,0.0001561999999999,53.2174,174.979,49.9796,71.7372,-0.021187,-0.00662704,0.0,0 STARLINK-3196,1 49768U 21115AW  22078.58334491 -.00662704  00000-0 -21187-1 0  9997,2 49768  53.2174 174.9790 0001562  49.9796  71.7372 15.34284375  3645,6841.184,93.855,464.11800000000005,461.98,0.0
49768.0,STARLINK-3196,PAYLOAD,2022-03-19 22:00:01,15.33817007,0.0001343,53.2173,173.423,70.3129,93.3511,-0.021453,-0.00661182,0.0,0 STARLINK-3196,1 49768U 21115AW  22078.91668981 -.00661182  00000-0 -21453-1 0  9993,2 49768  53.2173 173.4230 0001343  70.3129  93.3511 15.33817007  3662,6842.574000000001,93.883,465.358,463.52,0.0
49768.0,STARLINK-3196,PAYLOAD,2022-03-20 06:00:00,15.33217184,0.0001228,53.217,171.8687,65.4611,139.5331,-0.015641,-0.00478254,0.0,0 STARLINK-3196,1 49768U 21115AW  22079.25001157 -.00478254  00000-0 -15641-1 0  9995,2 49768  53.2170 171.8687 0001228  65.4611 139.5331 15.33217184 17792,6844.358,93.92,467.064,465.383,0.0
49768.0,STARLINK-3196,PAYLOAD,2022-03-20 14:00:01,15.32882988,0.000154,53.2175,170.3174,57.8184,187.8639,-0.022041,-0.00659597,0.0,0 STARLINK-3196,1 49768U 21115AW  22079.58334491 -.00659597  00000-0 -22041-1 0  9994,2 49768  53.2175 170.3174 0001540  57.8184 187.8639 15.32882988 17841,6845.353,93.941,468.272,466.164,0.0
49768.0,STARLINK-3196,PAYLOAD,2022-03-20 22:00:01,15.32418409,0.000128,53.2174,168.7646,76.5353,209.4111,-0.022505,-0.00663349,0.0,0 STARLINK-3196,1 49768U 21115AW  22079.91668981 -.00663349  00000-0 -22505-1 0  9990,2 49768  53.2174 168.7646 0001280  76.5353 209.4111 15.32418409  3655,6846.736,93.969,469.478,467.725,0.0
49768.0,STARLINK-3196,PAYLOAD,2022-03-21 14:00:01,15.31484942,0.0001384,53.2175,165.6659,55.7071,308.8935,-0.023144,-0.00662509,0.0,0 STARLINK-3196,1 49768U 21115AW  22080.58334491 -.00662509  00000-0 -23144-1 0  9998,2 49768  53.2175 165.6659 0001384  55.7071 308.8935 15.31484942  3648,6849.518,94.026,472.331,470.435,0.0
